      2.10          N: GNSS NAV DATA                        RINEX VERSION / TYPE
fic2rin                                 08/30/2022 00:17:50 PGM / RUN BY / DATE
                                                            END OF HEADER
3  22  8 29  1 59 44.0 -.341194681823D-03 -.750333128963D-11  .000000000000D+00
     .720000000000D+02 -.169687500000D+02  .452233123039D-08  .156395009255D+01
    -.953674316406D-06  .449663843028D-02  .243075191975D-05  .515355914688D+04
     .935840000000D+05 -.894069671631D-07  .190156074254D+01 -.465661287308D-07
     .974831744398D+00  .338531250000D+03  .104378389964D+01 -.841499337539D-08
    -.221437795202D-10  .100000000000D+01  .222500000000D+04  .000000000000D+00
     .240000000000D+01  .000000000000D+00  .186264514923D-08  .720000000000D+02
     .864000000000D+05  .400000000000D+01
15 22  8 29  8  0  0.0 -.334111973643D-04  .306954461848D-11  .000000000000D+00
     .490000000000D+02 -.892500000000D+02  .511592738462D-08  .811851569745D+00
    -.454857945442D-05  .144826034084D-01  .916421413422D-05  .515361275482D+04
     .115200000000D+06 -.203028321266D-06  .281721343053D+01  .558793544769D-08
     .931235755741D+00  .193187500000D+03  .112366316202D+01 -.861571602201D-08
    -.525379027002D-09  .100000000000D+01  .222500000000D+04  .000000000000D+00
     .240000000000D+01  .000000000000D+00 -.107102096081D-07  .490000000000D+02
     .108000000000D+06  .400000000000D+01
8  22  8 29  8  0  0.0 -.823987647891D-04 -.147792889038D-11  .000000000000D+00
     .102000000000D+03 -.528437500000D+02  .459554856590D-08  .177052189782D+01
    -.252202153206D-05  .746294856071D-02  .102296471596D-04  .515358294868D+04
     .115200000000D+06 -.372529029846D-08 -.215890486648D+00  .143423676491D-06
     .962647298673D+00  .183500000000D+03  .166618083261D+00 -.807247910830D-08
    -.522164607395D-09  .100000000000D+01  .222500000000D+04  .000000000000D+00
     .240000000000D+01  .000000000000D+00  .512227416039D-08  .102000000000D+03
     .108000000000D+06  .400000000000D+01
24 22  8 29  8  0  0.0  .153453089297D-03 -.121644916362D-10  .000000000000D+00
     .580000000000D+02  .539062500000D+02  .505413909661D-08 -.129524725968D+00
     .289641320705D-05  .128765556728D-01  .105351209641D-04  .515368101692D+04
     .115200000000D+06  .596046447754D-07 -.236959613204D+01  .230967998505D-06
     .934295112433D+00  .166281250000D+03  .831530331205D+00 -.850749722855D-08
     .535022285826D-09  .100000000000D+01  .222500000000D+04  .000000000000D+00
     .240000000000D+01  .000000000000D+00  .279396772385D-08  .580000000000D+02
     .108000000000D+06  .400000000000D+01
20 22  8 29  8  0  0.0  .490867067128D-03 -.318323145621D-11  .000000000000D+00
     .290000000000D+02  .178750000000D+02  .531879297765D-08  .652191616410D+00
     .951811671257D-06  .476058828644D-02  .195950269699D-05  .515363706207D+04
     .115200000000D+06  .135973095894D-06  .174073224096D+01  .875443220139D-07
     .944175105232D+00  .332375000000D+03 -.310574117038D+01 -.877357974053D-08
    -.607168148133D-11  .100000000000D+01  .222500000000D+04  .000000000000D+00
     .240000000000D+01  .000000000000D+00 -.838190317154D-08  .290000000000D+02
     .108000000000D+06  .400000000000D+01
22 22  8 29  8  0  0.0  .318237580359D-03  .670752342558D-11  .000000000000D+00
     .160000000000D+02 -.916562500000D+02  .416731644260D-08  .159693413197D+01
    -.480376183987D-05  .134397854563D-01  .106450170279D-04  .515374146652D+04
     .115200000000D+06 -.160187482834D-06  .303123273670D+01 -.309199094772D-06
     .962235558916D+00  .175625000000D+03 -.184416359643D+01 -.801533387083D-08
    -.276082928534D-09  .100000000000D+01  .222500000000D+04  .000000000000D+00
     .240000000000D+01  .000000000000D+00 -.791624188423D-08  .160000000000D+02
     .108000000000D+06  .400000000000D+01
17 22  8 29  8  0  0.0  .653540715575D-03  .397903932026D-11  .000000000000D+00
     .300000000000D+02 -.387500000000D+02  .400302388487D-08  .179998084596D+01
    -.219419598579D-05  .136358099990D-01  .107735395432D-04  .515361211586D+04
     .115200000000D+06  .150874257088D-06 -.131094064023D+00 -.229105353355D-06
     .978022472596D+00  .178375000000D+03 -.148451173759D+01 -.761746015493D-08
    -.441446959466D-09  .100000000000D+01  .222500000000D+04  .000000000000D+00
     .240000000000D+01  .000000000000D+00 -.111758708954D-07  .300000000000D+02
     .108000000000D+06  .400000000000D+01
9  22  8 29  8  0  0.0 -.302662141621D-03  .443378667114D-11  .000000000000D+00
     .810000000000D+02 -.907187500000D+02  .433660920861D-08  .223765721966D+01
    -.460259616375D-05  .240584125277D-02  .960193574429D-05  .515377578354D+04
     .115200000000D+06 -.279396772385D-07  .292835598372D+01  .670552253723D-07
     .955269987126D+00  .190750000000D+03  .190008598507D+01 -.796747473445D-08
    -.293583657509D-09  .100000000000D+01  .222500000000D+04  .000000000000D+00
     .240000000000D+01  .000000000000D+00  .139698386192D-08  .810000000000D+02
     .108000000000D+06  .400000000000D+01
7  22  8 29  8  0  0.0  .311552081257D-03 -.261479726760D-11  .000000000000D+00
     .650000000000D+02  .531875000000D+02  .461519224128D-08 -.109274219842D+01
     .306405127048D-05  .163729726337D-01  .933557748795D-05  .515364584160D+04
     .115200000000D+06  .296160578728D-06 -.228355616760D+01  .258907675743D-06
     .950692122931D+00  .191781250000D+03 -.224462527548D+01 -.817212611614D-08
     .546094175586D-09  .100000000000D+01  .222500000000D+04  .000000000000D+00
     .240000000000D+01  .000000000000D+00 -.111758708954D-07  .650000000000D+02
     .108000000000D+06  .400000000000D+01
31 22  8 29  8  0  0.0 -.191397499293D-03 -.136424205266D-11  .000000000000D+00
     .117000000000D+03  .477500000000D+02  .449768734673D-08 -.162321804610D+01
     .215880572796D-05  .104712190805D-01  .100731849670D-04  .515357550621D+04
     .115200000000D+06  .745058059692D-07 -.226467167703D+01 -.163912773132D-06
     .954845609221D+00  .176406250000D+03  .415787959329D+00 -.796533178804D-08
     .702529263164D-09  .100000000000D+01  .222500000000D+04  .000000000000D+00
     .240000000000D+01  .000000000000D+00 -.135041773319D-07  .117000000000D+03
     .108000000000D+06  .400000000000D+01
18 22  8 29  8  0  0.0  .664307735860D-04 -.123918653117D-10  .000000000000D+00
     .840000000000D+02  .899687500000D+02  .421517557898D-08 -.140810634242D+00
     .443123281002D-05  .276318029501D-02  .988692045212D-05  .515372606850D+04
     .115200000000D+06  .670552253723D-07  .872850464057D+00  .149011611938D-07
     .972237360126D+00  .195750000000D+03  .304512329747D+01 -.796068873750D-08
     .233581158164D-09  .100000000000D+01  .222500000000D+04  .000000000000D+00
     .240000000000D+01  .000000000000D+00 -.838190317154D-08  .840000000000D+02
     .108000000000D+06  .400000000000D+01
21 22  8 29  8  0  0.0  .160052441061D-03 -.341060513165D-12  .000000000000D+00
     .590000000000D+02  .692187500000D+02  .444232789793D-08  .182656772164D+01
     .373832881451D-05  .243225414306D-01  .930950045586D-05  .515371181679D+04
     .115200000000D+06  .339001417160D-06  .771726150886D+00  .856816768646D-07
     .960754322177D+00  .187906250000D+03 -.903135744395D+00 -.774353683511D-08
    -.571452374714D-10  .100000000000D+01  .222500000000D+04  .000000000000D+00
     .240000000000D+01  .000000000000D+00 -.102445483208D-07  .590000000000D+02
     .108000000000D+06  .400000000000D+01
19 22  8 29  8  0  0.0  .203521456569D-03  .500222085975D-11  .000000000000D+00
     .480000000000D+02 -.246250000000D+02  .399552357245D-08 -.229745723212D+01
    -.111944973469D-05  .919352215715D-02  .114198774099D-04  .515372265244D+04
     .115200000000D+06 -.540167093277D-07 -.863952487203D-01  .214204192162D-06
     .976932443558D+00  .167937500000D+03  .216180168420D+01 -.760174521463D-08
    -.376801409577D-09  .100000000000D+01  .222500000000D+04  .000000000000D+00
     .240000000000D+01  .000000000000D+00 -.153668224812D-07  .480000000000D+02
     .108000000000D+06  .400000000000D+01
14 22  8 29  8  0  0.0 -.106935389340D-03  .204636307899D-11  .000000000000D+00
     .220000000000D+02 -.743750000000D+01  .526343352885D-08 -.184685182251D+01
    -.523403286934D-06  .224848440848D-02  .373460352421D-05  .515365292358D+04
     .115200000000D+06  .651925802231D-07 -.120373275150D+01 -.614672899246D-07
     .951162790491D+00  .303906250000D+03 -.304234283733D+01 -.857964309086D-08
     .267868300647D-10  .100000000000D+01  .222500000000D+04  .000000000000D+00
     .240000000000D+01  .000000000000D+00 -.791624188423D-08  .790000000000D+03
     .108000000000D+06  .400000000000D+01
11 22  8 29  8  0  0.0 -.131623819470D-04 -.193267624127D-11  .000000000000D+00
     .109000000000D+03  .953750000000D+02  .450125892407D-08  .157218547869D+01
     .500120222569D-05  .680279219523D-03  .854022800922D-05  .515362821388D+04
     .115200000000D+06  .186264514923D-07  .907130822988D+00  .391155481339D-07
     .963617062679D+00  .217281250000D+03  .304893743943D+01 -.810890919719D-08
     .248938940735D-09  .100000000000D+01  .222500000000D+04  .000000000000D+00
     .240000000000D+01  .000000000000D+00 -.838190317154D-08  .621000000000D+03
     .108000000000D+06  .400000000000D+01
10 22  8 29  8  0  0.0 -.910833477974D-06 -.181898940355D-11  .000000000000D+00
     .490000000000D+02 -.637500000000D+01  .452804575414D-08 -.244765872372D+01
    -.286847352982D-06  .783043564297D-02  .263378024101D-05  .515367619896D+04
     .115200000000D+06 -.204890966415D-07  .189866331479D+01 -.763684511185D-07
     .974617835053D+00  .336125000000D+03 -.251097806944D+01 -.821712799065D-08
    -.392873507616D-11  .100000000000D+01  .222500000000D+04  .000000000000D+00
     .340000000000D+01  .630000000000D+02  .232830643654D-08  .305000000000D+03
     .108000000000D+06  .400000000000D+01
